{"fetched_at":"2026-07-13T18:17:15.790Z","source":"https://celestrak.org/NORAD/elements/gp.php?NAME=SENTINEL&FORMAT=JSON","constellation":"sentinel-2","records":[{"OBJECT_NAME":"SENTINEL-2A","OBJECT_ID":"2015-028A","EPOCH":"2026-07-13T07:09:59.785632","CLASSIFICATION_TYPE":"U","MEAN_MOTION":14.30813866,"ECCENTRICITY":0.00012712,"INCLINATION":98.5683,"RA_OF_ASC_NODE":268.7786,"ARG_OF_PERICENTER":95.9726,"MEAN_ANOMALY":264.1602,"EPHEMERIS_TYPE":0,"NORAD_CAT_ID":40697,"ELEMENT_SET_NO":999,"REV_AT_EPOCH":57746,"BSTAR":-7.4373e-7,"MEAN_MOTION_DOT":-4.6e-7,"MEAN_MOTION_DDOT":0},{"OBJECT_NAME":"SENTINEL-2B","OBJECT_ID":"2017-013A","EPOCH":"2026-07-13T06:59:38.751072","CLASSIFICATION_TYPE":"U","MEAN_MOTION":14.30814236,"ECCENTRICITY":0.0001217,"INCLINATION":98.5691,"RA_OF_ASC_NODE":268.6965,"ARG_OF_PERICENTER":91.3642,"MEAN_ANOMALY":268.768,"EPHEMERIS_TYPE":0,"NORAD_CAT_ID":42063,"ELEMENT_SET_NO":999,"REV_AT_EPOCH":48837,"BSTAR":-0.000033236927,"MEAN_MOTION_DOT":-0.00000131,"MEAN_MOTION_DDOT":0},{"OBJECT_NAME":"SENTINEL-2C","OBJECT_ID":"2024-157A","EPOCH":"2026-07-13T04:28:37.162272","CLASSIFICATION_TYPE":"U","MEAN_MOTION":14.3081532,"ECCENTRICITY":0.00009444,"INCLINATION":98.5685,"RA_OF_ASC_NODE":268.5997,"ARG_OF_PERICENTER":101.9124,"MEAN_ANOMALY":258.2165,"EPHEMERIS_TYPE":0,"NORAD_CAT_ID":60989,"ELEMENT_SET_NO":999,"REV_AT_EPOCH":9670,"BSTAR":0.000031702361,"MEAN_MOTION_DOT":3.9e-7,"MEAN_MOTION_DDOT":0}]}
