SENTINEL-2A             
1 40697U 15028A   26194.29860863 -.00000046  00000+0 -74373-6 0  9997
2 40697  98.5683 268.7786 0001271  95.9726 264.1602 14.30813866577460
SENTINEL-2B             
1 42063U 17013A   26194.29142073 -.00000131  00000+0 -33237-4 0  9995
2 42063  98.5691 268.6965 0001217  91.3642 268.7680 14.30814236488372
SENTINEL-2C             
1 60989U 24157A   26194.18654123  .00000039  00000+0  31702-4 0  9991
2 60989  98.5685 268.5997 0000944 101.9124 258.2165 14.30815320 96704
